{
  "norad_id": 62008,
  "name": "STARLINK-11433 [DTC]",
  "history": [
    {
      "epoch": "2026-03-28T21:26:17.311488",
      "apogee_km": 360.37901425664586,
      "perigee_km": 358.9256730952138,
      "latitude_deg": 52.954334978947465,
      "longitude_deg": 106.55256831995212,
      "semi_major_axis_km": 6737.78934367593,
      "eccentricity": 0.00010785,
      "inclination_deg": 53.1574,
      "raan_deg": 306.4209,
      "arg_perigee_deg": 64.4035,
      "mean_anomaly_deg": 295.7094,
      "mean_motion_rev_day": 15.69736002
    }
  ]
}