{"fetched_at":"2026-03-29T16:36:15Z","count":15609,"tles":[{"name":"STARLINK-11433 [DTC]","line1":"1 62008U 24213A   26087.89325592  .00112512  00000+0  92000-3 0  9999","line2":"2 62008  53.1574 306.4209 0001078  64.4035 295.7094 15.69736002 77936","category":"Starlink"}]}